start=new Date('2023-03-30T00:00:00.000Z').valueOf();
sats=[{"LAUNCH_DATE":"2021-12-18","APOAPSIS":"540.560","OBJECT_TYPE":"PAYLOAD","ELEMENT_SET_NO":"999","MEAN_MOTION_DDOT":"0.0000000000000","REV_AT_EPOCH":"7422","OBJECT_NAME":"STARLINK-3259","ARG_OF_PERICENTER":"100.5479","REF_FRAME":"TEME","SEMIMAJOR_AXIS":"6917.833","MEAN_ANOMALY":"259.5653","CENTER_NAME":"EARTH","DECAY_DATE":null,"COUNTRY_CODE":"US","ECCENTRICITY":"0.00012460","MEAN_ELEMENT_THEORY":"SGP4","RA_OF_ASC_NODE":"31.5203","OBJECT_ID":"2021-125AN","FILE":"3874492","RCS_SIZE":"LARGE","EPOCH":"2023-03-29T05:34:52.813344","TIME_SYSTEM":"UTC","MEAN_MOTION_DOT":"0.00005356","TLE_LINE2":"2 50192  53.2166  31.5203 0001246 100.5479 259.5653 15.08855531 74226","GP_ID":"229105880","BSTAR":"0.00035417000000","NORAD_CAT_ID":"50192","CLASSIFICATION_TYPE":"U","TLE_LINE1":"1 50192U 21125AN  23088.23255571  .00005356  00000-0  35417-3 0  9991","PERIOD":"95.437","MEAN_MOTION":"15.08855531","EPHEMERIS_TYPE":"0","INCLINATION":"53.2166","PERIAPSIS":"538.836","SITE":"AFWTR"},{"REF_FRAME":"TEME","ARG_OF_PERICENTER":"94.0916","SEMIMAJOR_AXIS":"6917.767","OBJECT_NAME":"STARLINK-3261","REV_AT_EPOCH":"7374","MEAN_MOTION_DDOT":"0.0000000000000","APOAPSIS":"540.540","LAUNCH_DATE":"2021-12-18","OBJECT_TYPE":"PAYLOAD","ELEMENT_SET_NO":"999","RA_OF_ASC_NODE":"31.4725","MEAN_ELEMENT_THEORY":"SGP4","OBJECT_ID":"2021-125AP","FILE":"3874758","RCS_SIZE":"LARGE","ECCENTRICITY":"0.00013120","DECAY_DATE":null,"COUNTRY_CODE":"US","MEAN_ANOMALY":"266.0226","CENTER_NAME":"EARTH","CLASSIFICATION_TYPE":"U","MEAN_MOTION_DOT":"0.00029372","TLE_LINE2":"2 50193  53.2169  31.4725 0001312  94.0916 266.0226 15.08877120 73748","GP_ID":"229115282","BSTAR":"0.00185400000000","NORAD_CAT_ID":"50193","EPOCH":"2023-03-29T05:50:46.207104","TIME_SYSTEM":"UTC","SITE":"AFWTR","MEAN_MOTION":"15.08877120","EPHEMERIS_TYPE":"0","INCLINATION":"53.2169","PERIAPSIS":"538.724","PERIOD":"95.435","TLE_LINE1":"1 50193U 21125AP  23088.24359036  .00029372  00000-0  18540-2 0  9995"},{"CLASSIFICATION_TYPE":"U","EPOCH":"2023-03-29T05:29:34.660032","TIME_SYSTEM":"UTC","NORAD_CAT_ID":"50194","BSTAR":"0.00035737000000","TLE_LINE2":"2 50194  53.2186  31.5355 0001086 110.1771 249.9338 15.08857786 74274","GP_ID":"229106882","MEAN_MOTION_DOT":"0.00005407","INCLINATION":"53.2186","PERIAPSIS":"538.940","MEAN_MOTION":"15.08857786","EPHEMERIS_TYPE":"0","SITE":"AFWTR","TLE_LINE1":"1 50194U 21125AQ  23088.22887338  .00005407  00000-0  35737-3 0  9996","PERIOD":"95.436","OBJECT_NAME":"STARLINK-3269","REV_AT_EPOCH":"7427","SEMIMAJOR_AXIS":"6917.826","REF_FRAME":"TEME","ARG_OF_PERICENTER":"110.1771","OBJECT_TYPE":"PAYLOAD","ELEMENT_SET_NO":"999","APOAPSIS":"540.442","LAUNCH_DATE":"2021-12-18","MEAN_MOTION_DDOT":"0.0000000000000","ECCENTRICITY":"0.00010860","FILE":"3874492","RCS_SIZE":"LARGE","MEAN_ELEMENT_THEORY":"SGP4","RA_OF_ASC_NODE":"31.5355","OBJECT_ID":"2021-125AQ","CENTER_NAME":"EARTH","MEAN_ANOMALY":"249.9338","COUNTRY_CODE":"US","DECAY_DATE":null},{"EPOCH":"2023-03-29T02:34:43.186656","TIME_SYSTEM":"UTC","BSTAR":"-0.00000597410000","TLE_LINE2":"2 50195  53.2189  32.0826 0001127  76.1872 283.9245 15.08837950 74205","GP_ID":"229106633","MEAN_MOTION_DOT":"-0.00000383","NORAD_CAT_ID":"50195","CLASSIFICATION_TYPE":"U","TLE_LINE1":"1 50195U 21125AR  23088.10744429 -.00000383  00000-0 -59741-5 0  9990","PERIOD":"95.438","MEAN_MOTION":"15.08837950","EPHEMERIS_TYPE":"0","INCLINATION":"53.2189","PERIAPSIS":"538.972","SITE":"AFWTR","LAUNCH_DATE":"2021-12-18","APOAPSIS":"540.531","OBJECT_TYPE":"PAYLOAD","ELEMENT_SET_NO":"999","MEAN_MOTION_DDOT":"0.0000000000000","REV_AT_EPOCH":"7420","OBJECT_NAME":"STARLINK-3266","ARG_OF_PERICENTER":"76.1872","REF_FRAME":"TEME","SEMIMAJOR_AXIS":"6917.887","MEAN_ANOMALY":"283.9245","CENTER_NAME":"EARTH","DECAY_DATE":null,"COUNTRY_CODE":"US","ECCENTRICITY":"0.00011270","OBJECT_ID":"2021-125AR","RA_OF_ASC_NODE":"32.0826","MEAN_ELEMENT_THEORY":"SGP4","FILE":"3874492","RCS_SIZE":"LARGE"},{"SITE":"AFWTR","EPHEMERIS_TYPE":"0","MEAN_MOTION":"15.08854595","PERIAPSIS":"538.565","INCLINATION":"53.2188","PERIOD":"95.437","TLE_LINE1":"1 50196U 21125AS  23088.22151401  .00003226  00000-0  22060-3 0  9995","CLASSIFICATION_TYPE":"U","BSTAR":"0.00022060000000","TLE_LINE2":"2 50196  53.2188  31.5697 0001642 100.8337 259.2840 15.08854595 74221","GP_ID":"229105382","MEAN_MOTION_DOT":"0.00003226","NORAD_CAT_ID":"50196","TIME_SYSTEM":"UTC","EPOCH":"2023-03-29T05:18:58.810464","MEAN_ELEMENT_THEORY":"SGP4","RA_OF_ASC_NODE":"31.5697","OBJECT_ID":"2021-125AS","RCS_SIZE":"LARGE","FILE":"3874492","ECCENTRICITY":"0.00016420","DECAY_DATE":null,"COUNTRY_CODE":"US","MEAN_ANOMALY":"259.2840","CENTER_NAME":"EARTH","REF_FRAME":"TEME","ARG_OF_PERICENTER":"100.8337","SEMIMAJOR_AXIS":"6917.836","REV_AT_EPOCH":"7422","OBJECT_NAME":"STARLINK-3263","MEAN_MOTION_DDOT":"0.0000000000000","APOAPSIS":"540.837","LAUNCH_DATE":"2021-12-18","ELEMENT_SET_NO":"999","OBJECT_TYPE":"PAYLOAD"},{"PERIAPSIS":"538.864","INCLINATION":"53.2162","EPHEMERIS_TYPE":"0","MEAN_MOTION":"15.08870723","SITE":"AFWTR","TLE_LINE1":"1 50197U 21125AT  23088.29143014  .00010396  00000-0  66975-3 0  9993","PERIOD":"95.436","CLASSIFICATION_TYPE":"U","TIME_SYSTEM":"UTC","EPOCH":"2023-03-29T06:59:39.564096","NORAD_CAT_ID":"50197","MEAN_MOTION_DOT":"0.00010396","TLE_LINE2":"2 50197  53.2162  31.2564 0001138 105.6972 254.4146 15.08870723 74285","GP_ID":"229105632","BSTAR":"0.00066975000000","ECCENTRICITY":"0.00011380","RCS_SIZE":"LARGE","FILE":"3874492","MEAN_ELEMENT_THEORY":"SGP4","RA_OF_ASC_NODE":"31.2564","OBJECT_ID":"2021-125AT","CENTER_NAME":"EARTH","MEAN_ANOMALY":"254.4146","COUNTRY_CODE":"US","DECAY_DATE":null,"REV_AT_EPOCH":"7428","OBJECT_NAME":"STARLINK-3267","SEMIMAJOR_AXIS":"6917.786","ARG_OF_PERICENTER":"105.6972","REF_FRAME":"TEME","ELEMENT_SET_NO":"999","OBJECT_TYPE":"PAYLOAD","LAUNCH_DATE":"2021-12-18","APOAPSIS":"540.439","MEAN_MOTION_DDOT":"0.0000000000000"},{"TLE_LINE1":"1 50198U 21125AU  23088.21047572  .00004796  00000-0  31911-3 0  9997","PERIOD":"95.437","EPHEMERIS_TYPE":"0","MEAN_MOTION":"15.08850920","PERIAPSIS":"539.019","INCLINATION":"53.2184","SITE":"AFWTR","TIME_SYSTEM":"UTC","EPOCH":"2023-03-29T05:03:05.102208","TLE_LINE2":"2 50198  53.2184  31.6246 0001002 114.4884 245.6213 15.08850920 74229","BSTAR":"0.00031911000000","GP_ID":"229106383","MEAN_MOTION_DOT":"0.00004796","NORAD_CAT_ID":"50198","CLASSIFICATION_TYPE":"U","MEAN_ANOMALY":"245.6213","CENTER_NAME":"EARTH","DECAY_DATE":null,"COUNTRY_CODE":"US","ECCENTRICITY":"0.00010020","RA_OF_ASC_NODE":"31.6246","OBJECT_ID":"2021-125AU","MEAN_ELEMENT_THEORY":"SGP4","RCS_SIZE":"LARGE","FILE":"3874492","LAUNCH_DATE":"2021-12-18","APOAPSIS":"540.405","ELEMENT_SET_NO":"999","OBJECT_TYPE":"PAYLOAD","MEAN_MOTION_DDOT":"0.0000000000000","OBJECT_NAME":"STARLINK-3264","REV_AT_EPOCH":"7422","REF_FRAME":"TEME","ARG_OF_PERICENTER":"114.4884","SEMIMAJOR_AXIS":"6917.847"},{"TLE_LINE1":"1 50199U 21125AV  23088.25831915  .00034931  00000-0  22007-2 0  9993","PERIOD":"95.436","EPHEMERIS_TYPE":"0","MEAN_MOTION":"15.08862124","PERIAPSIS":"538.950","INCLINATION":"53.2171","SITE":"AFWTR","TIME_SYSTEM":"UTC","EPOCH":"2023-03-29T06:11:58.774560","GP_ID":"229107133","TLE_LINE2":"2 50199  53.2171  31.4075 0001052 107.9740 252.1367 15.08862124 74229","BSTAR":"0.00220070000000","MEAN_MOTION_DOT":"0.00034931","NORAD_CAT_ID":"50199","CLASSIFICATION_TYPE":"U","MEAN_ANOMALY":"252.1367","CENTER_NAME":"EARTH","DECAY_DATE":null,"COUNTRY_CODE":"US","ECCENTRICITY":"0.00010520","MEAN_ELEMENT_THEORY":"SGP4","RA_OF_ASC_NODE":"31.4075","OBJECT_ID":"2021-125AV","RCS_SIZE":"LARGE","FILE":"3874492","LAUNCH_DATE":"2021-12-18","APOAPSIS":"540.406","ELEMENT_SET_NO":"999","OBJECT_TYPE":"PAYLOAD","MEAN_MOTION_DDOT":"0.0000000000000","REV_AT_EPOCH":"7422","OBJECT_NAME":"STARLINK-3270","REF_FRAME":"TEME","ARG_OF_PERICENTER":"107.9740","SEMIMAJOR_AXIS":"6917.813"},{"MEAN_MOTION_DDOT":"0.0000000000000","OBJECT_TYPE":"PAYLOAD","ELEMENT_SET_NO":"999","LAUNCH_DATE":"2021-12-18","APOAPSIS":"540.584","SEMIMAJOR_AXIS":"6917.856","ARG_OF_PERICENTER":"99.6257","REF_FRAME":"TEME","REV_AT_EPOCH":"7423","OBJECT_NAME":"STARLINK-3235","COUNTRY_CODE":"US","DECAY_DATE":null,"CENTER_NAME":"EARTH","MEAN_ANOMALY":"260.4877","FILE":"3874492","RCS_SIZE":"LARGE","MEAN_ELEMENT_THEORY":"SGP4","RA_OF_ASC_NODE":"31.5903","OBJECT_ID":"2021-125AW","ECCENTRICITY":"0.00012480","NORAD_CAT_ID":"50200","BSTAR":"0.00024825000000","TLE_LINE2":"2 50200  53.2175  31.5903 0001248  99.6257 260.4877 15.08848047 74231","GP_ID":"229105881","MEAN_MOTION_DOT":"0.00003666","EPOCH":"2023-03-29T05:15:03.907008","TIME_SYSTEM":"UTC","CLASSIFICATION_TYPE":"U","PERIOD":"95.437","TLE_LINE1":"1 50200U 21125AW  23088.21879522  .00003666  00000-0  24825-3 0  9990","SITE":"AFWTR","INCLINATION":"53.2175","PERIAPSIS":"538.857","MEAN_MOTION":"15.08848047","EPHEMERIS_TYPE":"0"},{"OBJECT_NAME":"STARLINK-3255","REV_AT_EPOCH":"7422","SEMIMAJOR_AXIS":"6917.821","REF_FRAME":"TEME","ARG_OF_PERICENTER":"93.9413","OBJECT_TYPE":"PAYLOAD","ELEMENT_SET_NO":"999","LAUNCH_DATE":"2021-12-18","APOAPSIS":"540.594","MEAN_MOTION_DDOT":"0.0000000000000","ECCENTRICITY":"0.00013120","FILE":"3874492","RCS_SIZE":"LARGE","RA_OF_ASC_NODE":"31.6461","OBJECT_ID":"2021-125AX","MEAN_ELEMENT_THEORY":"SGP4","CENTER_NAME":"EARTH","MEAN_ANOMALY":"266.1730","COUNTRY_CODE":"US","DECAY_DATE":null,"CLASSIFICATION_TYPE":"U","EPOCH":"2023-03-29T04:59:09.628512","TIME_SYSTEM":"UTC","NORAD_CAT_ID":"50201","TLE_LINE2":"2 50201  53.2191  31.6461 0001312  93.9413 266.1730 15.08859365 74228","GP_ID":"229106131","BSTAR":"0.00034984000000","MEAN_MOTION_DOT":"0.00005287","INCLINATION":"53.2191","PERIAPSIS":"538.779","MEAN_MOTION":"15.08859365","EPHEMERIS_TYPE":"0","SITE":"AFWTR","TLE_LINE1":"1 50201U 21125AX  23088.20775033  .00005287  00000-0  34984-3 0  9990","PERIOD":"95.436"}];
